ONEWEB-0159             
1 48062U 21025W   25072.24033441  .00005160  00000+0  14103-1 0  9998
2 48062  87.8912  51.8174 0001663  84.8105 275.3214 13.13391368193099
ONEWEB-0164             
1 48063U 21025X   25071.91700766  .00000725  00000+0  19501-2 0  9993
2 48063  87.8909  51.8923 0002008  83.1877 276.9480 13.13465944193038
ONEWEB-0167             
1 48064U 21025Y   25071.94492205 -.00002596  00000+0 -71344-2 0  9996
2 48064  87.8929  51.9055 0002088  58.6242 301.5091 13.13582632193025
ONEWEB-0166             
1 48065U 21025Z   25071.96778001  .00000194  00000+0  49689-3 0  9998
2 48065  87.8906  51.8700 0001671  87.2273 272.9047 13.13465507193108
ONEWEB-0151             
1 48066U 21025AA  25071.96946403  .00000896  00000+0  24193-2 0  9993
2 48066  87.8913  51.8903 0001972  80.9930 279.1422 13.13462080193048
ONEWEB-0170             
1 48067U 21025AB  25072.20644379  .00004538  00000+0  12390-1 0  9991
2 48067  87.8911  51.8474 0002376  82.6947 277.4452 13.13439115193032
ONEWEB-0168             
1 48068U 21025AC  25071.96270613 -.00001483  00000+0 -40955-2 0  9997
2 48068  87.8916  51.8732 0001907  82.9991 277.1354 13.13477917193014
ONEWEB-0173             
1 48069U 21025AD  25072.18278989 -.00004843  00000+0 -13297-1 0  9998
2 48069  87.8909  51.8379 0001936  71.0504 289.0835 13.13502548193289
